0 CZ-4 DEB
1 28073U 99057ND  13283.11187623  .00000379  00000-0  12733-3 0  1828
2 28073 098.3512 233.9463 0087677 108.0678 315.8419 14.40378885564964
0 CZ-4 DEB
1 28073U 99057ND  13285.81475818  .00000392  00000-0  13122-3 0  1832
2 28073 098.3517 236.5842 0087688 100.0511 291.1571 14.40381094565354
0 CZ-4 DEB
1 28073U 99057ND  13288.11353306  .00000649  00000-0  20852-3 0  1849
2 28073 098.3524 238.8277 0087719 093.2076 331.0902 14.40384082565681
0 CZ-4 DEB
1 28073U 99057ND  13291.10001510  .00000544  00000-0  17706-3 0  1858
2 28073 098.3531 241.7426 0087688 084.3546 337.0214 14.40387501566116
0 CZ-4 DEB
1 28073U 99057ND  13293.34048875  .00000663  00000-0  21278-3 0  1863
2 28073 098.3535 243.9298 0087608 077.7167 074.6645 14.40390035566431
0 CZ-4 DEB
1 28073U 99057ND  13295.81783487  .00000703  00000-0  22486-3 0  1870
2 28073 098.3536 246.3485 0087543 070.3549 320.6208 14.40393077566795
